{"type": "FeatureCollection", "features": [ {"type": "Feature", "properties": {"norad_id": 37867, "name": "COSMOS 2476 (744)", "group": "gnss", "lat": 54.164063643682915, "lon": -140.69271144781962, "alt_km": 19151.31593555741, "timestamp": "2025-12-14T05:42:18.700486+00:00", "meta": {"OBJECT_NAME": "COSMOS 2476 (744)", "OBJECT_ID": "2011-064A", "EPOCH": "2025-12-10T19:30:14.482368", "MEAN_MOTION": 2.13101258, "ECCENTRICITY": 0.00238922, "INCLINATION": 65.1614, "RA_OF_ASC_NODE": 79.2364, "ARG_OF_PERICENTER": 233.6597, "MEAN_ANOMALY": 135.7131, "EPHEMERIS_TYPE": 0, "CLASSIFICATION_TYPE": "U", "NORAD_CAT_ID": 37867, "ELEMENT_SET_NO": 999, "REV_AT_EPOCH": 10975, "BSTAR": 0, "MEAN_MOTION_DOT": -2.4e-07, "MEAN_MOTION_DDOT": 0}, "tle": {"line1": "1 37867U 11064A   25344.81266762 -.00000024  00000+0  00000+0 0  9994", "line2": "2 37867  65.1614  79.2364 0023892 233.6597 135.7131  2.13101258109752"}}, "geometry": {"type": "Point", "coordinates": [-140.69271144781962, 54.164063643682915]}}, {"type": "Feature", "properties": {"norad_id": 37868, "name": "COSMOS 2477 (745)", "group": "gnss", "lat": -53.19904516231325, "lon": 41.035852370787396, "alt_km": 19111.734477458867, "timestamp": "2025-12-14T05:42:18.700498+00:00", "meta": {"OBJECT_NAME": "COSMOS 2477 (745)", "OBJECT_ID": "2011-064B", "EPOCH": "2025-12-12T21:57:38.702592", "MEAN_MOTION": 2.13102761, "ECCENTRICITY": 0.00211332, "INCLINATION": 65.1692, "RA_OF_ASC_NODE": 79.2429, "ARG_OF_PERICENTER": 234.633, "MEAN_ANOMALY": 128.5252, "EPHEMERIS_TYPE": 0, "CLASSIFICATION_TYPE": "U", "NORAD_CAT_ID": 37868, "ELEMENT_SET_NO": 999, "REV_AT_EPOCH": 10979, "BSTAR": 0, "MEAN_MOTION_DOT": -4.4e-07, "MEAN_MOTION_DDOT": 0}, "tle": {"line1": "1 37868U 11064B   25346.91503128 -.00000044  00000+0  00000+0 0  9990", "line2": "2 37868  65.1692  79.2429 0021133 234.6330 128.5252  2.13102761109791"}}, "geometry": {"type": "Point", "coordinates": [41.035852370787396, -53.19904516231325]}}, {"type": "Feature", "properties": {"norad_id": 37869, "name": "COSMOS 2475 (743)", "group": "gnss", "lat": -60.69328701947202, "lon": -45.35873228813021, "alt_km": 19069.739965078963, "timestamp": "2025-12-14T05:42:18.700520+00:00", "meta": {"OBJECT_NAME": "COSMOS 2475 (743)", "OBJECT_ID": "2011-064C", "EPOCH": "2025-12-13T13:22:27.614784", "MEAN_MOTION": 2.1310138, "ECCENTRICITY": 0.00262467, "INCLINATION": 65.1766, "RA_OF_ASC_NODE": 79.2411, "ARG_OF_PERICENTER": 248.6291, "MEAN_ANOMALY": 203.1701, "EPHEMERIS_TYPE": 0, "CLASSIFICATION_TYPE": "U", "NORAD_CAT_ID": 37869, "ELEMENT_SET_NO": 999, "REV_AT_EPOCH": 10981, "BSTAR": 0, "MEAN_MOTION_DOT": -5e-07, "MEAN_MOTION_DDOT": 0}, "tle": {"line1": "1 37869U 11064C   25347.55726406 -.00000050  00000+0  00000+0 0  9995", "line2": "2 37869  65.1766  79.2411 0026246 248.6291 203.1701  2.13101380109814"}}, "geometry": {"type": "Point", "coordinates": [-45.35873228813021, -60.69328701947202]}}, {"type": "Feature", "properties": {"norad_id": 37948, "name": "BEIDOU-2 IGSO-5 (C10)", "group": "gnss", "lat": -8.174634327749507, "lon": -93.6047010946871, "alt_km": 36056.520009844564, "timestamp": "2025-12-14T05:42:18.700536+00:00", "meta": {"OBJECT_NAME": "BEIDOU-2 IGSO-5 (C10)", "OBJECT_ID": "2011-073A", "EPOCH": "2025-12-12T18:24:47.608416", "MEAN_MOTION": 1.00291151, "ECCENTRICITY": 0.01101752, "INCLINATION": 48.0199, "RA_OF_ASC_NODE": 273.857, "ARG_OF_PERICENTER": 222.308, "MEAN_ANOMALY": 314.7254, "EPHEMERIS_TYPE": 0, "CLASSIFICATION_TYPE": "U", "NORAD_CAT_ID": 37948, "ELEMENT_SET_NO": 999, "REV_AT_EPOCH": 5126, "BSTAR": 0, "MEAN_MOTION_DOT": -2.21e-06, "MEAN_MOTION_DDOT": 0}, "tle": {"line1": "1 37948U 11073A   25346.76721769 -.00000221  00000+0  00000+0 0  9992", "line2": "2 37948  48.0199 273.8570 0110175 222.3080 314.7254  1.00291151 51268"}}, "geometry": {"type": "Point", "coordinates": [-93.6047010946871, -8.174634327749507]}}, {"type": "Feature", "properties": {"norad_id": 37951, "name": "LUCH 5A (SDCM/PRN 140)", "group": "gnss", "lat": -8.145238129986526, "lon": -24.224833951850567, "alt_km": 35781.22398288854, "timestamp": "2025-12-14T05:42:18.700549+00:00", "meta": {"OBJECT_NAME": "LUCH 5A (SDCM/PRN 140)", "OBJECT_ID": "2011-074B", "EPOCH": "2025-12-13T14:35:22.968672", "MEAN_MOTION": 1.00275218, "ECCENTRICITY": 0.00054667, "INCLINATION": 8.2823, "RA_OF_ASC_NODE": 76.5731, "ARG_OF_PERICENTER": 181.6364, "MEAN_ANOMALY": 210.2509, "EPHEMERIS_TYPE": 0, "CLASSIFICATION_TYPE": "U", "NORAD_CAT_ID": 37951, "ELEMENT_SET_NO": 999, "REV_AT_EPOCH": 5119, "BSTAR": 0, "MEAN_MOTION_DOT": -3.6e-07, "MEAN_MOTION_DDOT": 0}, "tle": {"line1": "1 37951U 11074B   25347.60790473 -.00000036  00000+0  00000+0 0  9993", "line2": "2 37951   8.2823  76.5731 0005466 181.6364 210.2509  1.00275218 51190"}}, "geometry": {"type": "Point", "coordinates": [-24.224833951850567, -8.145238129986526]}}, {"type": "Feature", "properties": {"norad_id": 38091, "name": "BEIDOU-2 G5 (C05)", "group": "gnss", "lat": 1.2118679229906923, "lon": -132.56067058240595, "alt_km": 35767.33676005827, "timestamp": "2025-12-14T05:42:18.700561+00:00", "meta": {"OBJECT_NAME": "BEIDOU-2 G5 (C05)", "OBJECT_ID": "2012-008A", "EPOCH": "2025-12-13T15:26:31.812000", "MEAN_MOTION": 1.00276026, "ECCENTRICITY": 0.00125671, "INCLINATION": 3.1118, "RA_OF_ASC_NODE": 70.7084, "ARG_OF_PERICENTER": 227.8926, "MEAN_ANOMALY": 74.4079, "EPHEMERIS_TYPE": 0, "CLASSIFICATION_TYPE": "U", "NORAD_CAT_ID": 38091, "ELEMENT_SET_NO": 999, "REV_AT_EPOCH": 5050, "BSTAR": 0, "MEAN_MOTION_DOT": 7e-07, "MEAN_MOTION_DDOT": 0}, "tle": {"line1": "1 38091U 12008A   25347.64342375  .00000070  00000+0  00000+0 0  9992", "line2": "2 38091   3.1118  70.7084 0012567 227.8926  74.4079  1.00276026 50505"}}, "geometry": {"type": "Point", "coordinates": [-132.56067058240595, 1.2118679229906923]}}, {"type": "Feature", "properties": {"norad_id": 38250, "name": "BEIDOU-2 M3 (C11)", "group": "gnss", "lat": -16.761063863695174, "lon": 142.84707681992725, "alt_km": 21511.660245296312, "timestamp": "2025-12-14T05:42:18.700573+00:00", "meta": {"OBJECT_NAME": "BEIDOU-2 M3 (C11)", "OBJECT_ID": "2012-018A", "EPOCH": "2025-12-12T20:44:25.859616", "MEAN_MOTION": 1.86229754, "ECCENTRICITY": 0.00243187, "INCLINATION": 55.9198, "RA_OF_ASC_NODE": 311.1526, "ARG_OF_PERICENTER": 274.2431, "MEAN_ANOMALY": 85.469, "EPHEMERIS_TYPE": 0, "CLASSIFICATION_TYPE": "U", "NORAD_CAT_ID": 38250, "ELEMENT_SET_NO": 999, "REV_AT_EPOCH": 9247, "BSTAR": 0, "MEAN_MOTION_DOT": -9.2e-07, "MEAN_MOTION_DDOT": 0}, "tle": {"line1": "1 38250U 12018A   25346.86418819 -.00000092  00000+0  00000+0 0  9995", "line2": "2 38250  55.9198 311.1526 0024318 274.2431  85.4690  1.86229754 92475"}}, "geometry": {"type": "Point", "coordinates": [142.84707681992725, -16.761063863695174]}}, {"type": "Feature", "properties": {"norad_id": 38251, "name": "BEIDOU-2 M4 (C12)", "group": "gnss", "lat": -49.18981265911177, "lon": -177.82218113836882, "alt_km": 21496.810898976662, "timestamp": "2025-12-14T05:42:18.700584+00:00", "meta": {"OBJECT_NAME": "BEIDOU-2 M4 (C12)", "OBJECT_ID": "2012-018B", "EPOCH": "2025-12-13T07:59:48.422112", "MEAN_MOTION": 1.86229462, "ECCENTRICITY": 0.00154528, "INCLINATION": 55.8208, "RA_OF_ASC_NODE": 310.3658, "ARG_OF_PERICENTER": 277.4494, "MEAN_ANOMALY": 82.3644, "EPHEMERIS_TYPE": 0, "CLASSIFICATION_TYPE": "U", "NORAD_CAT_ID": 38251, "ELEMENT_SET_NO": 999, "REV_AT_EPOCH": 9248, "BSTAR": 0, "MEAN_MOTION_DOT": -9.5e-07, "MEAN_MOTION_DDOT": 0}, "tle": {"line1": "1 38251U 12018B   25347.33319933 -.00000095  00000+0  00000+0 0  9999", "line2": "2 38251  55.8208 310.3658 0015452 277.4494  82.3644  1.86229462 92489"}}, "geometry": {"type": "Point", "coordinates": [-177.82218113836882, -49.18981265911177]}}, {"type": "Feature", "properties": {"norad_id": 38652, "name": "SES-5 (EGNOS/PRN 136)", "group": "gnss", "lat": -0.04678401579701147, "lon": 173.673319384211, "alt_km": 35785.937203988164, "timestamp": "2025-12-14T05:42:18.700597+00:00", "meta": {"OBJECT_NAME": "SES-5 (EGNOS/PRN 136)", "OBJECT_ID": "2012-036A", "EPOCH": "2025-12-12T13:30:18.514656", "MEAN_MOTION": 1.00270732, "ECCENTRICITY": 0.00020933, "INCLINATION": 0.0553, "RA_OF_ASC_NODE": 306.3016, "ARG_OF_PERICENTER": 315.2407, "MEAN_ANOMALY": 27.5172, "EPHEMERIS_TYPE": 0, "CLASSIFICATION_TYPE": "U", "NORAD_CAT_ID": 38652, "ELEMENT_SET_NO": 999, "REV_AT_EPOCH": 4259, "BSTAR": 0, "MEAN_MOTION_DOT": 4.5e-07, "MEAN_MOTION_DDOT": 0}, "tle": {"line1": "1 38652U 12036A   25346.56271429  .00000045  00000+0  00000+0 0  9999", "line2": "2 38652   0.0553 306.3016 0002093 315.2407  27.5172  1.00270732 42590"}}, "geometry": {"type": "Point", "coordinates": [173.673319384211, -0.04678401579701147]}}, {"type": "Feature", "properties": {"norad_id": 38775, "name": "BEIDOU-2 M6 (C14)", "group": "gnss", "lat": 55.20473365048218, "lon": 141.99043630579632, "alt_km": 21524.748601563246, "timestamp": "2025-12-14T05:42:18.700609+00:00", "meta": {"OBJECT_NAME": "BEIDOU-2 M6 (C14)", "OBJECT_ID": "2012-050B", "EPOCH": "2025-12-11T10:23:51.015840", "MEAN_MOTION": 1.86230797, "ECCENTRICITY": 0.00111593, "INCLINATION": 56.3773, "RA_OF_ASC_NODE": 69.1107, "ARG_OF_PERICENTER": 344.6089, "MEAN_ANOMALY": 15.3783, "EPHEMERIS_TYPE": 0, "CLASSIFICATION_TYPE": "U", "NORAD_CAT_ID": 38775, "ELEMENT_SET_NO": 999, "REV_AT_EPOCH": 8981, "BSTAR": 0, "MEAN_MOTION_DOT": -6.3e-07, "MEAN_MOTION_DDOT": 0}, "tle": {"line1": "1 38775U 12050B   25345.43322935 -.00000063  00000+0  00000+0 0  9996", "line2": "2 38775  56.3773  69.1107 0011159 344.6089  15.3783  1.86230797 89814"}}, "geometry": {"type": "Point", "coordinates": [141.99043630579632, 55.20473365048218]}}]}